satname,norad_id,inclination_deg,eccentricity,mean_motion_rev_per_day,perigee_km,apogee_km,l1,l2
STARLINK-1448,45665,53.0542,0.0003508,15.12262391,526.8791123944584,531.7253717667027,1 45665U 20035J   26014.20565955  .00038036  00000+0  21793-2 0  9999,2 45665  53.0542 311.0234 0003508 118.9124 241.2220 15.12262391310518
STARLINK-1451,45668,53.055,0.0002881,15.07179417,542.8292815925615,546.8182915977968,1 45668U 20035M   26014.22252096  .00008788  00000+0  59559-3 0  9996,2 45668  53.0550 311.4042 0002881  98.3709 261.7607 15.07179417310521
STARLINK-1452,45669,53.0371,0.0003866,15.35885021,455.65003773750504,460.9359654147238,1 45669U 20035N   26014.43803197  .00049531  00000+0  13993-2 0  9996,2 45669  53.0371 278.3892 0003866 142.2587 217.8686 15.35885021311003
STARLINK-1453,45670,53.0535,0.0006985,15.40703405,439.26681095390086,448.7973811811071,1 45670U 20035P   26014.10047893  .00049064  00000+0  11848-2 0  9993,2 45670  53.0535 273.9184 0006985 119.2950 240.8753 15.40703405310927
STARLINK-1454,45671,53.0562,0.0003053,15.15812914,516.4061788370827,520.6172725489896,1 45671U 20035Q   26014.66668981  .00128200  00000+0  65292-2 0  9994,2 45671  53.0562 308.9996 0003053  86.5711  92.8819 15.15812914  5840
STARLINK-1456,45673,53.0558,0.0006702,15.38852909,444.92429864492533,454.07606352245057,1 45673U 20035S   26014.19929975  .00034409  00000+0  88772-3 0  9993,2 45673  53.0558 305.6410 0006702  98.2411 261.9353 15.38852909310601
STARLINK-1457,45674,53.0517,0.0014245,15.5537771,391.3979363582339,410.71185406769564,1 45674U 20035T   26014.42879343  .00024606  00000+0  36001-3 0  9999,2 45674  53.0517 290.6821 0014245  88.2300 272.0342 15.55377710310807
STARLINK-1458,45675,53.055,0.0002288,15.13193022,524.890074947456,528.0496230415556,1 45675U 20035U   26014.66668981  .00137601  00000+0  75336-2 0  9993,2 45675  53.0550 309.0639 0002288  42.2966  42.1113 15.13193022  5853
STARLINK-1460,45676,53.055,0.0001926,15.06398827,545.8813301919963,548.5489758413396,1 45676U 20035V   26013.56697103 -.00001378  00000+0 -73603-4 0  9990,2 45676  53.0550 314.0731 0001926  84.9217 275.1992 15.06398827310385
STARLINK-1392,45677,53.0548,0.0001327,15.0639862,546.2967931278554,548.1347817576434,1 45677U 20035W   26014.10881880  .00000670  00000+0  63845-4 0  9998,2 45677  53.0548 311.6424 0001327  85.8403 274.2738 15.06398620310500
STARLINK-1394,45679,53.0544,0.0005369,15.39468697,444.01457409141585,451.3441356932981,1 45679U 20035Y   26013.20154519  .00050404  00000+0  12675-2 0  9995,2 45679  53.0544 300.3510 0005369 102.1443 258.0162 15.39468697310583
STARLINK-1402,45685,53.0526,0.0010115,15.35958695,451.1595605990733,464.9892162378437,1 45685U 20035AE  26014.15458960  .00045577  00000+0  12845-2 0  9998,2 45685  53.0526 281.3152 0010115  81.8627 278.3522 15.35958695310945
STARLINK-1404,45686,53.0558,0.0001553,15.06395744,546.1490933392224,548.3001106528027,1 45686U 20035AF  26014.19820086 -.00000356  00000+0 -49812-5 0  9990,2 45686  53.0558 301.2405 0001553  90.2587 269.8580 15.06395744310665
STARLINK-1413,45689,53.0548,0.0001502,15.06394125,546.1893739677262,548.2697540835588,1 45689U 20035AJ  26014.08393853 -.00000500  00000+0 -14682-4 0  9995,2 45689  53.0548 301.7508 0001502  90.1548 269.9613 15.06394125310554
STARLINK-1417,45693,53.0542,0.0007056,15.09429367,533.0625303039351,542.8225017169298,1 45693U 20035AN  26014.15710633  .00006521  00000+0  42059-3 0  9992,2 45693  53.0542 300.8376 0007056  79.2232 280.9553 15.09429367310651
STARLINK-1420,45695,53.0547,8.7e-05,15.15229826,519.6807537996092,520.8810785170199,1 45695U 20035AQ  26014.66668981  .00079479  00000+0  41495-2 0  9992,2 45695  53.0547 279.0079 0000870 110.4333 248.9009 15.15229826  5748
STARLINK-1422,45696,53.067,2.92e-05,15.09930294,536.210897030157,536.6147067385855,1 45696U 20035AR  26014.66668981  .00080698  00000+0  48825-2 0  9992,2 45696  53.0670 299.1018 0000292  28.9939 232.5047 15.09930294  5747
STARLINK-1351,45697,53.0549,0.0002241,15.20566185,502.58935197542814,505.67398479259737,1 45697U 20035AS  26014.66668981  .00116256  00000+0  51745-2 0  9998,2 45697  53.0549 278.2748 0002241  77.5323  22.9143 15.20566185  5851
STARLINK-1398,45699,53.0437,0.0006227,15.68935174,357.7478692852319,366.14196730627737,1 45699U 20035AU  26014.66668981  .00127662  00000+0  10753-2 0  9997,2 45699  53.0437 210.6611 0006227 140.2468 311.8073 15.68935174  6004
STARLINK-1400,45700,53.0547,0.0002711,15.14635896,520.2135200993944,523.9548200177996,1 45700U 20035AV  26014.66668981  .00069303  00000+0  36865-2 0  9999,2 45700  53.0547 278.9906 0002711  89.9105 136.0834 15.14635896  5846
STARLINK-1403,45701,53.0536,0.0001549,15.06388602,546.1737494841163,548.3192332897479,1 45701U 20035AW  26014.13738864 -.00000728  00000+0 -29988-4 0  9998,2 45701  53.0536 281.5130 0001549  84.6479 275.4687 15.06388602310921
STARLINK-1407,45703,53.0379,0.0004082,15.4972917,414.74370480491143,420.29167729468463,1 45703U 20035AY  26014.57890144  .00065309  00000+0  11549-2 0  9994,2 45703  53.0379 217.4162 0004082 278.7018  81.3527 15.49729170311879
STARLINK-1411,45706,53.0478,0.0002459,15.52702208,407.17134524515313,410.5091806630735,1 45706U 20035BB  26013.81312215  .00034352  00000+0  55225-3 0  9995,2 45706  53.0478 247.5807 0002459 161.7942 198.3156 15.52702208311374
STARLINK-1423,45710,53.0553,6.91e-05,15.17280037,513.5889812114492,514.541483559965,1 45710U 20035BF  26014.66668981  .00077913  00000+0  38385-2 0  9995,2 45710  53.0553 278.8637 0000691 128.7649 225.4191 15.17280037  5849
STARLINK-1433,45711,53.0547,0.0002422,15.22329825,497.1495752127157,500.48077084532997,1 45711U 20035BG  26014.66668981  .00119917  00000+0  50657-2 0  9993,2 45711  53.0547 278.7911 0002422  64.2060  67.8561 15.22329825  5846
STARLINK-1434,45712,53.0513,0.0003941,15.20611822,501.2817182490817,506.7062138765332,1 45712U 20035BH  26013.14129435  .00026747  00000+0  12147-2 0  9992,2 45712  53.0513 276.1294 0003941  63.4974 296.6425 15.20611822310926
STARLINK-1465,45731,53.0549,0.0001649,15.17410444,512.5338881977414,514.8068062608572,1 45731U 20038B   26014.66668981  .00069414  00000+0  34127-2 0  9998,2 45731  53.0549 118.8911 0001649 106.3659 152.7178 15.17410444  5666
STARLINK-1471,45735,53.0505,0.0002589,15.44670372,430.58355676078827,434.1100252677752,1 45735U 20038F   26014.50289650  .00011912  00000+0  26003-3 0  9992,2 45735  53.0505  40.8248 0002589  67.2558 292.8721 15.44670372309144
STARLINK-1474,45738,53.0298,0.0005481,15.85484125,311.29341780453797,318.6303928245452,1 45738U 20038J   26014.66668981  .00139278  00000+0  56112-3 0  9990,2 45738  53.0298 339.5497 0005481 103.0471 353.4841 15.85484125  5792
STARLINK-1480,45741,53.0536,0.000473,15.38878904,446.19385578921174,452.65272782526154,1 45741U 20038M   26014.60286993  .00047389  00000+0  12161-2 0  9993,2 45741  53.0536 114.2823 0004730 358.1764   1.9221 15.38878904308126
STARLINK-1500,45744,53.0395,0.0003393,15.31623707,468.643528995889,473.29133126217585,1 45744U 20038Q   26014.50790007  .00009372  00000+0  31411-3 0  9991,2 45744  53.0395  86.2945 0003393  67.0132 293.1225 15.31623707308507
STARLINK-1504,45746,53.0261,0.00037,15.49327322,416.17786957257704,421.20752354803153,1 45746U 20038S   26014.37417059  .00015870  00000+0  29257-3 0  9996,2 45746  53.0261  43.4620 0003700  38.2953 321.8317 15.49327322309087
STARLINK-1506,45747,53.0807,0.000415,15.24127415,490.55519794160864,496.2585793691942,1 45747U 20038T   26014.60199905  .00021040  00000+0  86536-3 0  9999,2 45747  53.0807  92.2011 0004150  79.0317 281.1147 15.24127415308438
STARLINK-1464,45751,53.0548,7.54e-05,15.14856757,520.8932416904263,521.93369390097,1 45751U 20038X   26014.66668981  .00077948  00000+0  41138-2 0  9991,2 45751  53.0548  98.9247 0000754 178.9779 152.0340 15.14856757  5843
STARLINK-1477,45754,53.0524,0.0002173,15.11073139,531.4242100875508,534.4277580604294,1 45754U 20038AA  26014.52026384  .00015712  00000+0  94354-3 0  9994,2 45754  53.0524  98.5218 0002173 203.5389 156.5502 15.11073139308334
STARLINK-1478,45755,53.0544,0.00015,15.40266989,444.2971692364026,446.34420654277073,1 45755U 20038AB  26014.66668981  .01918763  00000+0  41956-1 0  9992,2 45755  53.0544  96.8514 0001500  92.1684  43.4284 15.40266989  5817
STARLINK-1484,45756,53.0096,0.0004728,15.7706485,335.58607300027506,341.9375725270802,1 45756U 20038AC  26014.24568024  .00082722  00000+0  49673-3 0  9996,2 45756  53.0096 333.0101 0004728  90.7995 269.3566 15.77064850310052
STARLINK-1493,45759,53.0563,0.0001443,15.13087639,525.7940573431451,527.7868194018602,1 45759U 20038AF  26014.66668981  .00089418  00000+0  49491-2 0  9994,2 45759  53.0563  99.0481 0001443  65.7039  82.0611 15.13087639  5812
STARLINK-1494,45760,53.0518,0.000118,15.63966075,375.41693727764414,377.01096410200716,1 45760U 20038AG  26014.66668981  .00305911  00000+0  30730-2 0  9991,2 45760  53.0518  58.2153 0001180  58.3729 324.7544 15.63966075  5893
STARLINK-1502,45764,53.0538,0.0001526,15.09600743,536.3637646477182,538.4743923628785,1 45764U 20038AL  26014.66668981  .00073469  00000+0  44917-2 0  9997,2 45764  53.0538  99.0718 0001526  60.3523 257.0006 15.09600743  5841
STARLINK-1470,45772,53.0457,0.0001668,15.23497173,494.15535368420933,496.44833288232803,1 45772U 20038AU  26014.42969218  .00026340  00000+0  10996-2 0  9993,2 45772  53.0457  65.2306 0001668 153.8000 206.3081 15.23497173308790
STARLINK-1482,45773,53.0559,0.0001485,15.06400029,546.1830548098005,548.2398833051111,1 45773U 20038AV  26014.44701609  .00002268  00000+0  17110-3 0  9993,2 45773  53.0559  80.1241 0001485  82.6841 277.4317 15.06400029308580
STARLINK-1496,45780,53.0555,0.0003379,15.38309273,448.8010681725864,453.41627239656464,1 45780U 20038BC  26014.56482001  .00035659  00000+0  93631-3 0  9998,2 45780  53.0555  74.8719 0003379  25.9392 334.1780 15.38309273308656
